[{"OBJECT_NAME":"STARLINK-3107","OBJECT_ID":"2021-082AT","EPOCH":"2026-03-09T21:59:27.140640","MEAN_MOTION":15.10504087,"ECCENTRICITY":0.00073375,"INCLINATION":69.9932,"RA_OF_ASC_NODE":287.3824,"ARG_OF_PERICENTER":250.2407,"MEAN_ANOMALY":109.7967,"EPHEMERIS_TYPE":0,"CLASSIFICATION_TYPE":"U","NORAD_CAT_ID":49171,"ELEMENT_SET_NO":999,"REV_AT_EPOCH":24733,"BSTAR":0.001517345,"MEAN_MOTION_DOT":0.00025048,"MEAN_MOTION_DDOT":0},{"OBJECT_NAME":"STARLINK-3897","OBJECT_ID":"2022-051E","EPOCH":"2026-03-09T11:39:14.679648","MEAN_MOTION":15.0883957,"ECCENTRICITY":0.00013185,"INCLINATION":53.2164,"RA_OF_ASC_NODE":129.8453,"ARG_OF_PERICENTER":93.6584,"MEAN_ANOMALY":266.4559,"EPHEMERIS_TYPE":0,"CLASSIFICATION_TYPE":"U","NORAD_CAT_ID":52537,"ELEMENT_SET_NO":999,"REV_AT_EPOCH":21141,"BSTAR":3.1875151e-5,"MEAN_MOTION_DOT":2.19e-6,"MEAN_MOTION_DDOT":0}]
